{"type": "FeatureCollection", "features": [ {"type": "Feature", "properties": {"norad_id": 34375, "name": "IRIDIUM 33 DEB", "group": "iridium-33-debris", "lat": -16.754454971936426, "lon": 178.91828419086053, "alt_km": 876.4708865458988, "timestamp": "2025-12-19T10:50:01.586481+00:00", "meta": {"OBJECT_NAME": "IRIDIUM 33 DEB", "OBJECT_ID": "1997-051FT", "EPOCH": "2025-12-18T13:09:00.260352", "MEAN_MOTION": 14.18002809, "ECCENTRICITY": 0.01036066, "INCLINATION": 86.432, "RA_OF_ASC_NODE": 180.3588, "ARG_OF_PERICENTER": 108.552, "MEAN_ANOMALY": 306.522, "EPHEMERIS_TYPE": 0, "CLASSIFICATION_TYPE": "U", "NORAD_CAT_ID": 34375, "ELEMENT_SET_NO": 999, "REV_AT_EPOCH": 86794, "BSTAR": 0.0003387918, "MEAN_MOTION_DOT": 7.51e-06, "MEAN_MOTION_DDOT": 0}, "tle": {"line1": "1 34375U 97051FT  25352.54791968  .00000751  00000+0  33879-3 0  9995", "line2": "2 34375  86.4320 180.3588 0103606 108.5520 306.5220 14.18002809867942"}}, "geometry": {"type": "Point", "coordinates": [178.91828419086053, -16.754454971936426]}}, {"type": "Feature", "properties": {"norad_id": 34376, "name": "IRIDIUM 33 DEB", "group": "iridium-33-debris", "lat": -7.075492818187231, "lon": 3.062088400182008, "alt_km": 705.873550788232, "timestamp": "2025-12-19T10:50:01.586491+00:00", "meta": {"OBJECT_NAME": "IRIDIUM 33 DEB", "OBJECT_ID": "1997-051FU", "EPOCH": "2025-12-18T18:26:49.224192", "MEAN_MOTION": 14.62646998, "ECCENTRICITY": 0.0027911, "INCLINATION": 86.2978, "RA_OF_ASC_NODE": 3.8295, "ARG_OF_PERICENTER": 146.7252, "MEAN_ANOMALY": 213.5722, "EPHEMERIS_TYPE": 0, "CLASSIFICATION_TYPE": "U", "NORAD_CAT_ID": 34376, "ELEMENT_SET_NO": 999, "REV_AT_EPOCH": 88095, "BSTAR": 0.001031725, "MEAN_MOTION_DOT": 5.297e-05, "MEAN_MOTION_DDOT": 0}, "tle": {"line1": "1 34376U 97051FU  25352.76862528  .00005297  00000+0  10317-2 0  9992", "line2": "2 34376  86.2978   3.8295 0027911 146.7252 213.5722 14.62646998880956"}}, "geometry": {"type": "Point", "coordinates": [3.062088400182008, -7.075492818187231]}}, {"type": "Feature", "properties": {"norad_id": 34486, "name": "IRIDIUM 33 DEB", "group": "iridium-33-debris", "lat": -65.75054367345066, "lon": 0.8764122775776333, "alt_km": 595.3190632902142, "timestamp": "2025-12-19T10:50:01.586502+00:00", "meta": {"OBJECT_NAME": "IRIDIUM 33 DEB", "OBJECT_ID": "1997-051GB", "EPOCH": "2025-12-18T13:12:33.232032", "MEAN_MOTION": 14.96051759, "ECCENTRICITY": 0.00138921, "INCLINATION": 86.3929, "RA_OF_ASC_NODE": 9.3426, "ARG_OF_PERICENTER": 95.5939, "MEAN_ANOMALY": 28.9882, "EPHEMERIS_TYPE": 0, "CLASSIFICATION_TYPE": "U", "NORAD_CAT_ID": 34486, "ELEMENT_SET_NO": 999, "REV_AT_EPOCH": 89073, "BSTAR": 0.0017069689, "MEAN_MOTION_DOT": 0.00019258, "MEAN_MOTION_DDOT": 0}, "tle": {"line1": "1 34486U 97051GB  25352.55038463  .00019258  00000+0  17070-2 0  9999", "line2": "2 34486  86.3929   9.3426 0013892  95.5939  28.9882 14.96051759890732"}}, "geometry": {"type": "Point", "coordinates": [0.8764122775776333, -65.75054367345066]}}, {"type": "Feature", "properties": {"norad_id": 34487, "name": "IRIDIUM 33 DEB", "group": "iridium-33-debris", "lat": 62.48862432400987, "lon": -177.56570955224012, "alt_km": 718.6117233416016, "timestamp": "2025-12-19T10:50:01.586512+00:00", "meta": {"OBJECT_NAME": "IRIDIUM 33 DEB", "OBJECT_ID": "1997-051GC", "EPOCH": "2025-12-18T07:45:56.041056", "MEAN_MOTION": 14.43223269, "ECCENTRICITY": 0.00331222, "INCLINATION": 86.3431, "RA_OF_ASC_NODE": 9.9731, "ARG_OF_PERICENTER": 110.9986, "MEAN_ANOMALY": 270.0816, "EPHEMERIS_TYPE": 0, "CLASSIFICATION_TYPE": "U", "NORAD_CAT_ID": 34487, "ELEMENT_SET_NO": 999, "REV_AT_EPOCH": 88329, "BSTAR": 0.00015301486, "MEAN_MOTION_DOT": 5.38e-06, "MEAN_MOTION_DDOT": 0}, "tle": {"line1": "1 34487U 97051GC  25352.32356529  .00000538  00000+0  15301-3 0  9998", "line2": "2 34487  86.3431   9.9731 0033122 110.9986 270.0816 14.43223269883297"}}, "geometry": {"type": "Point", "coordinates": [-177.56570955224012, 62.48862432400987]}}, {"type": "Feature", "properties": {"norad_id": 34488, "name": "IRIDIUM 33 DEB", "group": "iridium-33-debris", "lat": 25.08577713298592, "lon": -55.791869341249544, "alt_km": 464.49843066170524, "timestamp": "2025-12-19T10:50:01.586523+00:00", "meta": {"OBJECT_NAME": "IRIDIUM 33 DEB", "OBJECT_ID": "1997-051GD", "EPOCH": "2025-12-18T20:36:21.699936", "MEAN_MOTION": 15.30898743, "ECCENTRICITY": 0.00115528, "INCLINATION": 86.3236, "RA_OF_ASC_NODE": 302.7776, "ARG_OF_PERICENTER": 41.1127, "MEAN_ANOMALY": 319.099, "EPHEMERIS_TYPE": 0, "CLASSIFICATION_TYPE": "U", "NORAD_CAT_ID": 34488, "ELEMENT_SET_NO": 999, "REV_AT_EPOCH": 89333, "BSTAR": 0.0035214405, "MEAN_MOTION_DOT": 0.0010661, "MEAN_MOTION_DDOT": 0}, "tle": {"line1": "1 34488U 97051GD  25352.85858449  .00106610  00000+0  35214-2 0  9997", "line2": "2 34488  86.3236 302.7776 0011552  41.1127 319.0990 15.30898743893334"}}, "geometry": {"type": "Point", "coordinates": [-55.791869341249544, 25.08577713298592]}}, {"type": "Feature", "properties": {"norad_id": 34492, "name": "IRIDIUM 33 DEB", "group": "iridium-33-debris", "lat": 35.32371014515586, "lon": 149.408791923389, "alt_km": 758.9093387829225, "timestamp": "2025-12-19T10:50:01.586534+00:00", "meta": {"OBJECT_NAME": "IRIDIUM 33 DEB", "OBJECT_ID": "1997-051GH", "EPOCH": "2025-12-18T09:36:31.167936", "MEAN_MOTION": 14.25834729, "ECCENTRICITY": 0.01887299, "INCLINATION": 86.4707, "RA_OF_ASC_NODE": 332.3402, "ARG_OF_PERICENTER": 219.7976, "MEAN_ANOMALY": 295.0845, "EPHEMERIS_TYPE": 0, "CLASSIFICATION_TYPE": "U", "NORAD_CAT_ID": 34492, "ELEMENT_SET_NO": 999, "REV_AT_EPOCH": 85139, "BSTAR": 0.0028886567, "MEAN_MOTION_DOT": 8.305e-05, "MEAN_MOTION_DDOT": 0}, "tle": {"line1": "1 34492U 97051GH  25352.40036074  .00008305  00000+0  28887-2 0  9995", "line2": "2 34492  86.4707 332.3402 0188729 219.7976 295.0845 14.25834729851393"}}, "geometry": {"type": "Point", "coordinates": [149.408791923389, 35.32371014515586]}}, {"type": "Feature", "properties": {"norad_id": 34497, "name": "IRIDIUM 33 DEB", "group": "iridium-33-debris", "lat": 65.69506864375049, "lon": 57.82318558906813, "alt_km": 811.1641822649317, "timestamp": "2025-12-19T10:50:01.586544+00:00", "meta": {"OBJECT_NAME": "IRIDIUM 33 DEB", "OBJECT_ID": "1997-051GN", "EPOCH": "2025-12-18T04:30:11.149056", "MEAN_MOTION": 14.27469284, "ECCENTRICITY": 0.00783512, "INCLINATION": 86.2772, "RA_OF_ASC_NODE": 50.074, "ARG_OF_PERICENTER": 321.7487, "MEAN_ANOMALY": 93.0567, "EPHEMERIS_TYPE": 0, "CLASSIFICATION_TYPE": "U", "NORAD_CAT_ID": 34497, "ELEMENT_SET_NO": 999, "REV_AT_EPOCH": 86961, "BSTAR": 0.00048701444, "MEAN_MOTION_DOT": 1.253e-05, "MEAN_MOTION_DDOT": 0}, "tle": {"line1": "1 34497U 97051GN  25352.18762904  .00001253  00000+0  48701-3 0  9996", "line2": "2 34497  86.2772  50.0740 0078351 321.7487  93.0567 14.27469284869610"}}, "geometry": {"type": "Point", "coordinates": [57.82318558906813, 65.69506864375049]}}, {"type": "Feature", "properties": {"norad_id": 34508, "name": "IRIDIUM 33 DEB", "group": "iridium-33-debris", "lat": 51.73264501422565, "lon": -84.81662920424685, "alt_km": 715.1641767700376, "timestamp": "2025-12-19T10:50:01.586555+00:00", "meta": {"OBJECT_NAME": "IRIDIUM 33 DEB", "OBJECT_ID": "1997-051GZ", "EPOCH": "2025-12-18T19:12:54.851040", "MEAN_MOTION": 14.38471932, "ECCENTRICITY": 0.00664842, "INCLINATION": 86.3709, "RA_OF_ASC_NODE": 100.074, "ARG_OF_PERICENTER": 153.504, "MEAN_ANOMALY": 206.9584, "EPHEMERIS_TYPE": 0, "CLASSIFICATION_TYPE": "U", "NORAD_CAT_ID": 34508, "ELEMENT_SET_NO": 999, "REV_AT_EPOCH": 87396, "BSTAR": 0.00089500959, "MEAN_MOTION_DOT": 2.823e-05, "MEAN_MOTION_DDOT": 0}, "tle": {"line1": "1 34508U 97051GZ  25352.80063485  .00002823  00000+0  89501-3 0  9993", "line2": "2 34508  86.3709 100.0740 0066484 153.5040 206.9584 14.38471932873962"}}, "geometry": {"type": "Point", "coordinates": [-84.81662920424685, 51.73264501422565]}}, {"type": "Feature", "properties": {"norad_id": 34521, "name": "IRIDIUM 33 DEB", "group": "iridium-33-debris", "lat": -7.97135923589114, "lon": -151.8985520479194, "alt_km": 684.6215725541406, "timestamp": "2025-12-19T10:50:01.586565+00:00", "meta": {"OBJECT_NAME": "IRIDIUM 33 DEB", "OBJECT_ID": "1997-051HN", "EPOCH": "2025-12-18T14:17:06.631296", "MEAN_MOTION": 14.63413961, "ECCENTRICITY": 0.00022735, "INCLINATION": 86.3793, "RA_OF_ASC_NODE": 27.9703, "ARG_OF_PERICENTER": 187.5039, "MEAN_ANOMALY": 172.6139, "EPHEMERIS_TYPE": 0, "CLASSIFICATION_TYPE": "U", "NORAD_CAT_ID": 34521, "ELEMENT_SET_NO": 999, "REV_AT_EPOCH": 88558, "BSTAR": 0.00060542288, "MEAN_MOTION_DOT": 3.152e-05, "MEAN_MOTION_DDOT": 0}, "tle": {"line1": "1 34521U 97051HN  25352.59521564  .00003152  00000+0  60542-3 0  9991", "line2": "2 34521  86.3793  27.9703 0002273 187.5039 172.6139 14.63413961885589"}}, "geometry": {"type": "Point", "coordinates": [-151.8985520479194, -7.97135923589114]}}, {"type": "Feature", "properties": {"norad_id": 34525, "name": "IRIDIUM 33 DEB", "group": "iridium-33-debris", "lat": -52.693144203342854, "lon": -131.244992255063, "alt_km": 760.0994811946357, "timestamp": "2025-12-19T10:50:01.586576+00:00", "meta": {"OBJECT_NAME": "IRIDIUM 33 DEB", "OBJECT_ID": "1997-051HS", "EPOCH": "2025-12-18T16:02:32.351136", "MEAN_MOTION": 14.4291922, "ECCENTRICITY": 0.00065219, "INCLINATION": 86.3723, "RA_OF_ASC_NODE": 44.3133, "ARG_OF_PERICENTER": 81.568, "MEAN_ANOMALY": 46.5711, "EPHEMERIS_TYPE": 0, "CLASSIFICATION_TYPE": "U", "NORAD_CAT_ID": 34525, "ELEMENT_SET_NO": 999, "REV_AT_EPOCH": 88173, "BSTAR": 0.0002662308, "MEAN_MOTION_DOT": 9.09e-06, "MEAN_MOTION_DDOT": 0}, "tle": {"line1": "1 34525U 97051HS  25352.66842999  .00000909  00000+0  26623-3 0  9990", "line2": "2 34525  86.3723  44.3133 0006521  81.5680  46.5711 14.42919220881735"}}, "geometry": {"type": "Point", "coordinates": [-131.244992255063, -52.693144203342854]}}]}